[{"OBJECT_NAME":"STARLINK-33915","OBJECT_ID":"2025-087M","EPOCH":"2026-03-09T17:16:17.138784","MEAN_MOTION":15.30182486,"ECCENTRICITY":8.876e-5,"INCLINATION":53.1572,"RA_OF_ASC_NODE":219.4555,"ARG_OF_PERICENTER":83.3484,"MEAN_ANOMALY":276.7618,"EPHEMERIS_TYPE":0,"CLASSIFICATION_TYPE":"U","NORAD_CAT_ID":63708,"ELEMENT_SET_NO":999,"REV_AT_EPOCH":4920,"BSTAR":0.00090408464,"MEAN_MOTION_DOT":0.00026498,"MEAN_MOTION_DDOT":0},{"OBJECT_NAME":"DELTA 1 DEB","OBJECT_ID":"1977-065BM","EPOCH":"2026-03-09T08:53:34.800288","MEAN_MOTION":14.77293363,"ECCENTRICITY":0.02802368,"INCLINATION":28.9467,"RA_OF_ASC_NODE":72.3418,"ARG_OF_PERICENTER":336.7461,"MEAN_ANOMALY":22.0666,"EPHEMERIS_TYPE":0,"CLASSIFICATION_TYPE":"U","NORAD_CAT_ID":10234,"ELEMENT_SET_NO":999,"REV_AT_EPOCH":46616,"BSTAR":0.0015812082,"MEAN_MOTION_DOT":0.00022515,"MEAN_MOTION_DDOT":0}]
